{
  "links" : {
    "next" : "https://api.nasa.gov/neo/rest/v1/feed?start_date=2008-05-23&end_date=2008-05-23&detailed=true&api_key=t0TVs3DtDT2H8Oy2Zy8m2eVrNsAVKAexjcZXUckd",
    "prev" : "https://api.nasa.gov/neo/rest/v1/feed?start_date=2008-05-21&end_date=2008-05-21&detailed=true&api_key=t0TVs3DtDT2H8Oy2Zy8m2eVrNsAVKAexjcZXUckd",
    "self" : "https://api.nasa.gov/neo/rest/v1/feed?start_date=2008-05-22&end_date=2008-05-22&detailed=true&api_key=t0TVs3DtDT2H8Oy2Zy8m2eVrNsAVKAexjcZXUckd"
  },
  "element_count" : 4,
  "near_earth_objects" : {
    "2008-05-22" : [ {
      "links" : {
        "self" : "https://api.nasa.gov/neo/rest/v1/neo/3409990?api_key=t0TVs3DtDT2H8Oy2Zy8m2eVrNsAVKAexjcZXUckd"
      },
      "neo_reference_id" : "3409990",
      "name" : "(2008 JP)",
      "nasa_jpl_url" : "http://ssd.jpl.nasa.gov/sbdb.cgi?sstr=3409990",
      "absolute_magnitude_h" : 20.8,
      "estimated_diameter" : {
        "kilometers" : {
          "estimated_diameter_min" : 0.1838886721,
          "estimated_diameter_max" : 0.411187571
        },
        "meters" : {
          "estimated_diameter_min" : 183.8886720703,
          "estimated_diameter_max" : 411.1875710413
        },
        "miles" : {
          "estimated_diameter_min" : 0.1142630881,
          "estimated_diameter_max" : 0.2555000322
        },
        "feet" : {
          "estimated_diameter_min" : 603.309310875,
          "estimated_diameter_max" : 1349.040630575
        }
      },
      "is_potentially_hazardous_asteroid" : false,
      "close_approach_data" : [ {
        "close_approach_date" : "2008-05-22",
        "epoch_date_close_approach" : 1211439600000,
        "relative_velocity" : {
          "kilometers_per_second" : "12.3103148957",
          "kilometers_per_hour" : "44317.1336245384",
          "miles_per_hour" : "27536.9433902027"
        },
        "miss_distance" : {
          "astronomical" : "0.4691598678",
          "lunar" : "182.5031890869",
          "kilometers" : "70185320",
          "miles" : "43611136"
        },
        "orbiting_body" : "Earth"
      } ],
      "orbital_data" : {
        "orbit_id" : "14",
        "orbit_determination_date" : "2017-04-06 09:03:32",
        "orbit_uncertainty" : "1",
        "minimum_orbit_intersection" : ".139562",
        "jupiter_tisserand_invariant" : "4.152",
        "epoch_osculation" : "2458000.5",
        "eccentricity" : ".6484477073621906",
        "semi_major_axis" : "1.546900366446805",
        "inclination" : "18.3852313277902",
        "ascending_node_longitude" : "31.12087676180657",
        "orbital_period" : "702.7355761911197",
        "perihelion_distance" : ".5438163703066418",
        "perihelion_argument" : "307.2900472835136",
        "aphelion_distance" : "2.549984362586968",
        "perihelion_time" : "2458196.408725524715",
        "mean_anomaly" : "259.6391479549678",
        "mean_motion" : ".5122837269051148",
        "equinox" : "J2000"
      }
    }, {
      "links" : {
        "self" : "https://api.nasa.gov/neo/rest/v1/neo/3477940?api_key=t0TVs3DtDT2H8Oy2Zy8m2eVrNsAVKAexjcZXUckd"
      },
      "neo_reference_id" : "3477940",
      "name" : "(2009 WW7)",
      "nasa_jpl_url" : "http://ssd.jpl.nasa.gov/sbdb.cgi?sstr=3477940",
      "absolute_magnitude_h" : 28.9,
      "estimated_diameter" : {
        "kilometers" : {
          "estimated_diameter_min" : 0.004411182,
          "estimated_diameter_max" : 0.0098637028
        },
        "meters" : {
          "estimated_diameter_min" : 4.411182,
          "estimated_diameter_max" : 9.8637028131
        },
        "miles" : {
          "estimated_diameter_min" : 0.0027409806,
          "estimated_diameter_max" : 0.0061290189
        },
        "feet" : {
          "estimated_diameter_min" : 14.4723823528,
          "estimated_diameter_max" : 32.3612307372
        }
      },
      "is_potentially_hazardous_asteroid" : false,
      "close_approach_data" : [ {
        "close_approach_date" : "2008-05-22",
        "epoch_date_close_approach" : 1211439600000,
        "relative_velocity" : {
          "kilometers_per_second" : "6.4759127685",
          "kilometers_per_hour" : "23313.2859664825",
          "miles_per_hour" : "14485.9692717847"
        },
        "miss_distance" : {
          "astronomical" : "0.0590272927",
          "lunar" : "22.9616165161",
          "kilometers" : "8830357",
          "miles" : "5486929.5"
        },
        "orbiting_body" : "Earth"
      } ],
      "orbital_data" : {
        "orbit_id" : "8",
        "orbit_determination_date" : "2017-04-06 08:59:06",
        "orbit_uncertainty" : "7",
        "minimum_orbit_intersection" : ".00182612",
        "jupiter_tisserand_invariant" : "5.653",
        "epoch_osculation" : "2458000.5",
        "eccentricity" : ".2618323359947978",
        "semi_major_axis" : "1.090731947327509",
        "inclination" : "2.525988945073623",
        "ascending_node_longitude" : "57.15471119947429",
        "orbital_period" : "416.0786938676786",
        "perihelion_distance" : ".8051430536145924",
        "perihelion_argument" : "273.7683893222463",
        "aphelion_distance" : "1.376320841040425",
        "perihelion_time" : "2458002.049310366210",
        "mean_anomaly" : "358.6595042234659",
        "mean_motion" : ".8652209433114767",
        "equinox" : "J2000"
      }
    }, {
      "links" : {
        "self" : "https://api.nasa.gov/neo/rest/v1/neo/3767163?api_key=t0TVs3DtDT2H8Oy2Zy8m2eVrNsAVKAexjcZXUckd"
      },
      "neo_reference_id" : "3767163",
      "name" : "(2017 BP30)",
      "nasa_jpl_url" : "http://ssd.jpl.nasa.gov/sbdb.cgi?sstr=3767163",
      "absolute_magnitude_h" : 26.0,
      "estimated_diameter" : {
        "kilometers" : {
          "estimated_diameter_min" : 0.0167708462,
          "estimated_diameter_max" : 0.0375007522
        },
        "meters" : {
          "estimated_diameter_min" : 16.7708462163,
          "estimated_diameter_max" : 37.5007521798
        },
        "miles" : {
          "estimated_diameter_min" : 0.0104209175,
          "estimated_diameter_max" : 0.0233018799
        },
        "feet" : {
          "estimated_diameter_min" : 55.0224631002,
          "estimated_diameter_max" : 123.0339677816
        }
      },
      "is_potentially_hazardous_asteroid" : false,
      "close_approach_data" : [ {
        "close_approach_date" : "2008-05-22",
        "epoch_date_close_approach" : 1211439600000,
        "relative_velocity" : {
          "kilometers_per_second" : "8.5376121205",
          "kilometers_per_hour" : "30735.4036339763",
          "miles_per_hour" : "19097.784552456"
        },
        "miss_distance" : {
          "astronomical" : "0.1810078995",
          "lunar" : "70.4120788574",
          "kilometers" : "27078398",
          "miles" : "16825736"
        },
        "orbiting_body" : "Earth"
      } ],
      "orbital_data" : {
        "orbit_id" : "6",
        "orbit_determination_date" : "2017-04-06 08:20:40",
        "orbit_uncertainty" : "7",
        "minimum_orbit_intersection" : ".0378728",
        "jupiter_tisserand_invariant" : "4.938",
        "epoch_osculation" : "2458000.5",
        "eccentricity" : ".267622160982934",
        "semi_major_axis" : "1.306191692624453",
        "inclination" : "8.75774823094787",
        "ascending_node_longitude" : "309.3065445644257",
        "orbital_period" : "545.2664830056085",
        "perihelion_distance" : ".9566258491863411",
        "perihelion_argument" : "232.2606449527729",
        "aphelion_distance" : "1.655757536062566",
        "perihelion_time" : "2457830.027672344263",
        "mean_anomaly" : "112.5505415586566",
        "mean_motion" : ".6602276340471437",
        "equinox" : "J2000"
      }
    }, {
      "links" : {
        "self" : "https://api.nasa.gov/neo/rest/v1/neo/3763268?api_key=t0TVs3DtDT2H8Oy2Zy8m2eVrNsAVKAexjcZXUckd"
      },
      "neo_reference_id" : "3763268",
      "name" : "(2016 VR)",
      "nasa_jpl_url" : "http://ssd.jpl.nasa.gov/sbdb.cgi?sstr=3763268",
      "absolute_magnitude_h" : 26.2,
      "estimated_diameter" : {
        "kilometers" : {
          "estimated_diameter_min" : 0.0152951935,
          "estimated_diameter_max" : 0.0342010925
        },
        "meters" : {
          "estimated_diameter_min" : 15.2951935344,
          "estimated_diameter_max" : 34.201092472
        },
        "miles" : {
          "estimated_diameter_min" : 0.0095039897,
          "estimated_diameter_max" : 0.021251567
        },
        "feet" : {
          "estimated_diameter_min" : 50.1810827555,
          "estimated_diameter_max" : 112.2083122258
        }
      },
      "is_potentially_hazardous_asteroid" : false,
      "close_approach_data" : [ {
        "close_approach_date" : "2008-05-22",
        "epoch_date_close_approach" : 1211439600000,
        "relative_velocity" : {
          "kilometers_per_second" : "23.4643104255",
          "kilometers_per_hour" : "84471.5175318526",
          "miles_per_hour" : "52487.3159908336"
        },
        "miss_distance" : {
          "astronomical" : "0.4826592694",
          "lunar" : "187.7544555664",
          "kilometers" : "72204800",
          "miles" : "44865984"
        },
        "orbiting_body" : "Earth"
      } ],
      "orbital_data" : {
        "orbit_id" : "8",
        "orbit_determination_date" : "2017-07-21 16:08:36",
        "orbit_uncertainty" : "5",
        "minimum_orbit_intersection" : ".00656961",
        "jupiter_tisserand_invariant" : "5.372",
        "epoch_osculation" : "2458000.5",
        "eccentricity" : ".3279920750116145",
        "semi_major_axis" : "1.161242818729833",
        "inclination" : "3.494009449150936",
        "ascending_node_longitude" : "45.30424849768747",
        "orbital_period" : "457.0702859295817",
        "perihelion_distance" : ".7803643770222989",
        "perihelion_argument" : "87.94026097926843",
        "aphelion_distance" : "1.542121260437367",
        "perihelion_time" : "2458221.389464201518",
        "mean_anomaly" : "186.021928004312",
        "mean_motion" : ".7876250351033828",
        "equinox" : "J2000"
      }
    } ]
  }
}